{
  "type": "FeatureCollection",
  "features": [
    {
      "type": "Feature",
      "properties": {
        "norad_id": 45344,
        "name": "BEIDOU-3 G2 (C60)",
        "group": "gnss",
        "lat": -1.9216363863926165,
        "lon": -86.93634627410941,
        "alt_km": 35777.13790360369,
        "timestamp": "2025-12-19T06:59:44.152166+00:00",
        "meta_object_name": "BEIDOU-3 G2 (C60)",
        "meta_object_id": "2020-017A",
        "meta_epoch": "2025-12-18T20:31:28.077312",
        "meta_mean_motion": 1.00273241,
        "meta_eccentricity": 0.00020819,
        "meta_inclination": 2.5082,
        "meta_ra_of_asc_node": 43.994,
        "meta_arg_of_pericenter": 232.5941,
        "meta_mean_anomaly": 199.013,
        "meta_ephemeris_type": 0,
        "meta_classification_type": "U",
        "meta_norad_cat_id": 45344,
        "meta_element_set_no": 999,
        "meta_rev_at_epoch": 2145,
        "meta_bstar": 0,
        "meta_mean_motion_dot": -1.18e-06,
        "meta_mean_motion_ddot": 0,
        "tle_line1": "1 45344U 20017A   25352.85518608 -.00000118  00000+0  00000+0 0  9997",
        "tle_line2": "2 45344   2.5082  43.9940 0002081 232.5941 199.0130  1.00273241 21450"
      },
      "geometry": {
        "type": "Point",
        "coordinates": [
          -86.93634627410941,
          -1.9216363863926165
        ]
      }
    },
    {
      "type": "Feature",
      "properties": {
        "norad_id": 45358,
        "name": "COSMOS 2545 (760)",
        "group": "gnss",
        "lat": -19.277892845134904,
        "lon": 148.3427175830657,
        "alt_km": 19113.0645122693,
        "timestamp": "2025-12-19T06:59:44.152186+00:00",
        "meta_object_name": "COSMOS 2545 (760)",
        "meta_object_id": "2020-018A",
        "meta_epoch": "2025-12-18T13:25:32.377728",
        "meta_mean_motion": 2.13102609,
        "meta_eccentricity": 0.00115817,
        "meta_inclination": 64.4659,
        "meta_ra_of_asc_node": 318.7651,
        "meta_arg_of_pericenter": 249.5623,
        "meta_mean_anomaly": 110.3045,
        "meta_ephemeris_type": 0,
        "meta_classification_type": "U",
        "meta_norad_cat_id": 45358,
        "meta_element_set_no": 999,
        "meta_rev_at_epoch": 4481,
        "meta_bstar": 0,
        "meta_mean_motion_dot": -6.4e-07,
        "meta_mean_motion_ddot": 0,
        "tle_line1": "1 45358U 20018A   25352.55940252 -.00000064  00000+0  00000+0 0  9994",
        "tle_line2": "2 45358  64.4659 318.7651 0011581 249.5623 110.3045  2.13102609 44814"
      },
      "geometry": {
        "type": "Point",
        "coordinates": [
          148.3427175830657,
          -19.277892845134904
        ]
      }
    },
    {
      "type": "Feature",
      "properties": {
        "norad_id": 45807,
        "name": "BEIDOU-3 G3 (C61)",
        "group": "gnss",
        "lat": -1.7022921752407874,
        "lon": -56.43738632546792,
        "alt_km": 35778.44175422478,
        "timestamp": "2025-12-19T06:59:44.152198+00:00",
        "meta_object_name": "BEIDOU-3 G3 (C61)",
        "meta_object_id": "2020-040A",
        "meta_epoch": "2025-12-18T22:22:54.904224",
        "meta_mean_motion": 1.00271264,
        "meta_eccentricity": 0.00064278,
        "meta_inclination": 2.0056,
        "meta_ra_of_asc_node": 66.6354,
        "meta_arg_of_pericenter": 309.3696,
        "meta_mean_anomaly": 158.0932,
        "meta_ephemeris_type": 0,
        "meta_classification_type": "U",
        "meta_norad_cat_id": 45807,
        "meta_element_set_no": 999,
        "meta_rev_at_epoch": 2026,
        "meta_bstar": 0,
        "meta_mean_motion_dot": -3.31e-06,
        "meta_mean_motion_ddot": 0,
        "tle_line1": "1 45807U 20040A   25352.93257991 -.00000331  00000+0  00000+0 0  9998",
        "tle_line2": "2 45807   2.0056  66.6354 0006427 309.3696 158.0932  1.00271264 20265"
      },
      "geometry": {
        "type": "Point",
        "coordinates": [
          -56.43738632546792,
          -1.7022921752407874
        ]
      }
    },
    {
      "type": "Feature",
      "properties": {
        "norad_id": 45854,
        "name": "GPS BIII-3  (PRN 23)",
        "group": "gnss",
        "lat": 28.503202825558922,
        "lon": 56.97225953976635,
        "alt_km": 20336.981637752688,
        "timestamp": "2025-12-19T06:59:44.152248+00:00",
        "meta_object_name": "GPS BIII-3  (PRN 23)",
        "meta_object_id": "2020-041A",
        "meta_epoch": "2025-12-18T05:27:58.178880",
        "meta_mean_motion": 2.00562003,
        "meta_eccentricity": 0.0060605,
        "meta_inclination": 56.5506,
        "meta_ra_of_asc_node": 35.9719,
        "meta_arg_of_pericenter": 203.6022,
        "meta_mean_anomaly": 143.4254,
        "meta_ephemeris_type": 0,
        "meta_classification_type": "U",
        "meta_norad_cat_id": 45854,
        "meta_element_set_no": 999,
        "meta_rev_at_epoch": 4040,
        "meta_bstar": 0,
        "meta_mean_motion_dot": -7e-07,
        "meta_mean_motion_ddot": 0,
        "tle_line1": "1 45854U 20041A   25352.22775670 -.00000070  00000+0  00000+0 0  9992",
        "tle_line2": "2 45854  56.5506  35.9719 0060605 203.6022 143.4254  2.00562003 40400"
      },
      "geometry": {
        "type": "Point",
        "coordinates": [
          56.97225953976635,
          28.503202825558922
        ]
      }
    },
    {
      "type": "Feature",
      "properties": {
        "norad_id": 46114,
        "name": "GALAXY 30 (WAAS/PRN 135)",
        "group": "gnss",
        "lat": 0.05218958703938764,
        "lon": 68.07290792418256,
        "alt_km": 35793.850134298074,
        "timestamp": "2025-12-19T06:59:44.152261+00:00",
        "meta_object_name": "GALAXY 30 (WAAS/PRN 135)",
        "meta_object_id": "2020-056C",
        "meta_epoch": "2025-12-18T22:58:21.508896",
        "meta_mean_motion": 1.00272074,
        "meta_eccentricity": 0.00020303,
        "meta_inclination": 0.0278,
        "meta_ra_of_asc_node": 359.9556,
        "meta_arg_of_pericenter": 271.9117,
        "meta_mean_anomaly": 35.5331,
        "meta_ephemeris_type": 0,
        "meta_classification_type": "U",
        "meta_norad_cat_id": 46114,
        "meta_element_set_no": 999,
        "meta_rev_at_epoch": 1948,
        "meta_bstar": 0,
        "meta_mean_motion_dot": 0,
        "meta_mean_motion_ddot": 0,
        "tle_line1": "1 46114U 20056C   25352.95719339  .00000000  00000+0  00000+0 0  9990",
        "tle_line2": "2 46114   0.0278 359.9556 0002030 271.9117  35.5331  1.00272074 19485"
      },
      "geometry": {
        "type": "Point",
        "coordinates": [
          68.07290792418256,
          0.05218958703938764
        ]
      }
    },
    {
      "type": "Feature",
      "properties": {
        "norad_id": 46805,
        "name": "COSMOS 2547 (705K)",
        "group": "gnss",
        "lat": 49.40722580802736,
        "lon": -127.81944205627708,
        "alt_km": 19139.977437286063,
        "timestamp": "2025-12-19T06:59:44.152276+00:00",
        "meta_object_name": "COSMOS 2547 (705K)",
        "meta_object_id": "2020-075A",
        "meta_epoch": "2025-12-17T08:09:16.456320",
        "meta_mean_motion": 2.1310013,
        "meta_eccentricity": 0.0006169,
        "meta_inclination": 64.5962,
        "meta_ra_of_asc_node": 198.5429,
        "meta_arg_of_pericenter": 228.3795,
        "meta_mean_anomaly": 131.6499,
        "meta_ephemeris_type": 0,
        "meta_classification_type": "U",
        "meta_norad_cat_id": 46805,
        "meta_element_set_no": 999,
        "meta_rev_at_epoch": 4003,
        "meta_bstar": 0,
        "meta_mean_motion_dot": 1.12e-06,
        "meta_mean_motion_ddot": 0,
        "tle_line1": "1 46805U 20075A   25351.33977380  .00000112  00000+0  00000+0 0  9995",
        "tle_line2": "2 46805  64.5962 198.5429 0006169 228.3795 131.6499  2.13100130 40034"
      },
      "geometry": {
        "type": "Point",
        "coordinates": [
          -127.81944205627708,
          49.40722580802736
        ]
      }
    },
    {
      "type": "Feature",
      "properties": {
        "norad_id": 46826,
        "name": "GPS BIII-4  (PRN 14)",
        "group": "gnss",
        "lat": 5.1435858029100245,
        "lon": -138.16282147139884,
        "alt_km": 20346.057928581304,
        "timestamp": "2025-12-19T06:59:44.152288+00:00",
        "meta_object_name": "GPS BIII-4  (PRN 14)",
        "meta_object_id": "2020-078A",
        "meta_epoch": "2025-12-16T01:06:13.902336",
        "meta_mean_motion": 2.00566891,
        "meta_eccentricity": 0.00647554,
        "meta_inclination": 54.0145,
        "meta_ra_of_asc_node": 218.2068,
        "meta_arg_of_pericenter": 203.3828,
        "meta_mean_anomaly": 339.3936,
        "meta_ephemeris_type": 0,
        "meta_classification_type": "U",
        "meta_norad_cat_id": 46826,
        "meta_element_set_no": 999,
        "meta_rev_at_epoch": 3783,
        "meta_bstar": 0,
        "meta_mean_motion_dot": 6.7e-07,
        "meta_mean_motion_ddot": 0,
        "tle_line1": "1 46826U 20078A   25350.04599424  .00000067  00000+0  00000+0 0  9996",
        "tle_line2": "2 46826  54.0145 218.2068 0064755 203.3828 339.3936  2.00566891 37831"
      },
      "geometry": {
        "type": "Point",
        "coordinates": [
          -138.16282147139884,
          5.1435858029100245
        ]
      }
    }
  ]
}